ONEWEB-0444             
1 51638U 22012S   23341.62108546  .00000484  00000+0  13504-2 0  9995
2 51638  87.8937 219.5088 0001633  73.5354 286.5953 13.10370465 89803
ONEWEB-0445             
1 51639U 22012T   23342.17671084  .00002288  00000+0  65180-2 0  9990
2 51639  87.8947 219.3726 0002292  62.5963 297.5397 13.10370028 89874
ONEWEB-0446             
1 51640U 22012U   23342.15395456 -.00001846  00000+0 -53247-2 0  9998
2 51640  87.8906 219.3958 0001823  78.2771 281.8561 13.10380176 89872
ONEWEB-0448             
1 51641U 22012V   23341.77703529 -.00000408  00000+0 -12064-2 0  9995
2 51641  87.8908 219.4687 0001564  80.7811 279.3494 13.10374082 89786
ONEWEB-0449             
1 51642U 22012W   23342.16370727  .00000535  00000+0  14964-2 0  9990
2 51642  87.8924 219.3984 0004168  48.3944 311.7540 13.10371902 89853
ONEWEB-0451             
1 51643U 22012X   23342.11566116  .00000057  00000+0  11274-3 0  9996
2 51643  87.9198 189.1706 0001510  77.2674 282.8627 13.17647448 93535
ONEWEB-0452             
1 51644U 22012Y   23342.11354556  .00000041  00000+0  73690-4 0  9994
2 51644  87.9215 189.1967 0001455  65.6818 294.4465 13.17651761 93547
ONEWEB-0455             
1 51645U 22012Z   23342.10537150  .00000323  00000+0  13629-3 0  9995
2 51645  87.5351 171.9345 0015074 247.2991 112.6606 14.22660751 96273
